TIANHUI 7               
1 67300U 25314A   26008.13994258  .00002013  00000+0  82629-4 0  9994
2 67300  97.4205  85.2818 0001392 102.4970 257.6424 15.25383404  1382
CZ-4B R/B               
1 67301U 25314B   26009.18033138  .00097295  48581-5  48970-3 0  9990
2 67301  97.3746  86.8804 0142581 341.5381  18.0735 15.68231696  1535
2025-315A               
1 67302U 25315A   25365.60681806  .00008137  00000+0  11929-2 0  9992
2 67302  19.4970 100.4602 7295768 180.0375 168.0127  2.27864601    24
CZ-7A R/B               
1 67303U 25315B   26008.05503553  .00125058 -11400-6  28611-2 0  9991
2 67303  19.5349  97.3275 7209866 184.9187 159.1194  2.41805695   214
CSG-3                   
1 67304U 26001A   26009.21358814  .00000536  00000+0  74903-4 0  9998
2 67304  97.8605 195.2104 0003868 157.4121 202.7262 14.81531234   918
STARLINK-36490          
1 67305U 26002A   26009.16668980 -.00943575  30201-3 -15617-2 0  9998
2 67305  42.9998 312.3410 0001719 257.6796  26.4831 16.02133938  1908
STARLINK-36488          
1 67306U 26002B   26009.16668980 -.00941705  30116-3 -15519-2 0  9998
2 67306  42.9998 312.3389 0001841 261.4747  23.4987 16.02205977  1844
STARLINK-36481          
1 67307U 26002C   26009.16668980 -.00948309  30573-3 -15436-2 0  9991
2 67307  42.9998 312.3340 0001916 263.2127  23.7536 16.02415711  1849
STARLINK-36449          
1 67308U 26002D   26009.16668980 -.00951097  30770-3 -15393-2 0  9991
2 67308  42.9998 312.3317 0001967 265.2681  22.6206 16.02512668  1905
STARLINK-36482          
1 67309U 26002E   26009.16668980 -.00957808  31345-3 -15038-2 0  9993
2 67309  43.0002 312.3202 0001906 262.9796  29.6967 16.03024199  1843
STARLINK-36491          
1 67310U 26002F   26009.16668980 -.00948180  30542-3 -15497-2 0  9995
2 67310  43.0000 312.3362 0001762 258.7902  27.3383 16.02347927  1845
STARLINK-36495          
1 67311U 26002G   26009.16668980 -.00952987  30921-3 -15318-2 0  9999
2 67311  43.0000 312.3291 0001901 262.2403  26.6814 16.02628895  2004
