CCSDS_OMM_VERS = 2.0
CREATION_DATE  = 
ORIGINATOR     = 

OBJECT_NAME    = TIANHUI 7
OBJECT_ID      = 2025-314A
CENTER_NAME    = EARTH
REF_FRAME      = TEME
TIME_SYSTEM    = UTC
MEAN_ELEMENT_THEORY = SGP/SGP4

EPOCH          = 2026-01-08T03:21:31.038912
MEAN_MOTION    = 15.25383404
ECCENTRICITY   = .00013928
INCLINATION    = 97.4205
RA_OF_ASC_NODE = 85.2818
ARG_OF_PERICENTER = 102.4970
MEAN_ANOMALY   = 257.6424

EPHEMERIS_TYPE = 0
CLASSIFICATION_TYPE = U
NORAD_CAT_ID   = 67300
ELEMENT_SET_NO = 999
REV_AT_EPOCH   = 138
BSTAR          = .82629326E-4
MEAN_MOTION_DOT = .2013E-4
MEAN_MOTION_DDOT = 0

CCSDS_OMM_VERS = 2.0
CREATION_DATE  = 
ORIGINATOR     = 

OBJECT_NAME    = CZ-4B R/B
OBJECT_ID      = 2025-314B
CENTER_NAME    = EARTH
REF_FRAME      = TEME
TIME_SYSTEM    = UTC
MEAN_ELEMENT_THEORY = SGP/SGP4

EPOCH          = 2026-01-09T04:19:40.631232
MEAN_MOTION    = 15.68231696
ECCENTRICITY   = .0142581
INCLINATION    = 97.3746
RA_OF_ASC_NODE = 86.8804
ARG_OF_PERICENTER = 341.5381
MEAN_ANOMALY   = 18.0735

EPHEMERIS_TYPE = 0
CLASSIFICATION_TYPE = U
NORAD_CAT_ID   = 67301
ELEMENT_SET_NO = 999
REV_AT_EPOCH   = 153
BSTAR          = .4897E-3
MEAN_MOTION_DOT = .97295E-3
MEAN_MOTION_DDOT = .48581E-5

CCSDS_OMM_VERS = 2.0
CREATION_DATE  = 
ORIGINATOR     = 

OBJECT_NAME    = 2025-315A
OBJECT_ID      = 2025-315A
CENTER_NAME    = EARTH
REF_FRAME      = TEME
TIME_SYSTEM    = UTC
MEAN_ELEMENT_THEORY = SGP/SGP4

EPOCH          = 2025-12-31T14:33:49.080384
MEAN_MOTION    = 2.27864601
ECCENTRICITY   = .72957684
INCLINATION    = 19.4970
RA_OF_ASC_NODE = 100.4602
ARG_OF_PERICENTER = 180.0375
MEAN_ANOMALY   = 168.0127

EPHEMERIS_TYPE = 0
CLASSIFICATION_TYPE = U
NORAD_CAT_ID   = 67302
ELEMENT_SET_NO = 999
REV_AT_EPOCH   = 2
BSTAR          = .11928835E-2
MEAN_MOTION_DOT = .8137E-4
MEAN_MOTION_DDOT = 0

CCSDS_OMM_VERS = 2.0
CREATION_DATE  = 
ORIGINATOR     = 

OBJECT_NAME    = CZ-7A R/B
OBJECT_ID      = 2025-315B
CENTER_NAME    = EARTH
REF_FRAME      = TEME
TIME_SYSTEM    = UTC
MEAN_ELEMENT_THEORY = SGP/SGP4

EPOCH          = 2026-01-08T01:19:15.069792
MEAN_MOTION    = 2.41805695
ECCENTRICITY   = .72098661
INCLINATION    = 19.5349
RA_OF_ASC_NODE = 97.3275
ARG_OF_PERICENTER = 184.9187
MEAN_ANOMALY   = 159.1194

EPHEMERIS_TYPE = 0
CLASSIFICATION_TYPE = U
NORAD_CAT_ID   = 67303
ELEMENT_SET_NO = 999
REV_AT_EPOCH   = 21
BSTAR          = .28611487E-2
MEAN_MOTION_DOT = .125058E-2
MEAN_MOTION_DDOT = -.114004E-6

CCSDS_OMM_VERS = 2.0
CREATION_DATE  = 
ORIGINATOR     = 

OBJECT_NAME    = CSG-3
OBJECT_ID      = 2026-001A
CENTER_NAME    = EARTH
REF_FRAME      = TEME
TIME_SYSTEM    = UTC
MEAN_ELEMENT_THEORY = SGP/SGP4

EPOCH          = 2026-01-09T05:07:34.015296
MEAN_MOTION    = 14.81531234
ECCENTRICITY   = .0003868
INCLINATION    = 97.8605
RA_OF_ASC_NODE = 195.2104
ARG_OF_PERICENTER = 157.4121
MEAN_ANOMALY   = 202.7262

EPHEMERIS_TYPE = 0
CLASSIFICATION_TYPE = U
NORAD_CAT_ID   = 67304
ELEMENT_SET_NO = 999
REV_AT_EPOCH   = 91
BSTAR          = .74903E-4
MEAN_MOTION_DOT = .536E-5
MEAN_MOTION_DDOT = 0

CCSDS_OMM_VERS = 2.0
CREATION_DATE  = 
ORIGINATOR     = 

OBJECT_NAME    = STARLINK-36490
OBJECT_ID      = 2026-002A
CENTER_NAME    = EARTH
REF_FRAME      = TEME
TIME_SYSTEM    = UTC
MEAN_ELEMENT_THEORY = SGP/SGP4

EPOCH          = 2026-01-09T04:00:01.998720
MEAN_MOTION    = 16.02133938
ECCENTRICITY   = .0001719
INCLINATION    = 42.9998
RA_OF_ASC_NODE = 312.3410
ARG_OF_PERICENTER = 257.6796
MEAN_ANOMALY   = 26.4831

EPHEMERIS_TYPE = 0
CLASSIFICATION_TYPE = U
NORAD_CAT_ID   = 67305
ELEMENT_SET_NO = 999
REV_AT_EPOCH   = 190
BSTAR          = -.15617E-2
MEAN_MOTION_DOT = -.943575E-2
MEAN_MOTION_DDOT = .30201E-3

CCSDS_OMM_VERS = 2.0
CREATION_DATE  = 
ORIGINATOR     = 

OBJECT_NAME    = STARLINK-36488
OBJECT_ID      = 2026-002B
CENTER_NAME    = EARTH
REF_FRAME      = TEME
TIME_SYSTEM    = UTC
MEAN_ELEMENT_THEORY = SGP/SGP4

EPOCH          = 2026-01-09T04:00:01.998720
MEAN_MOTION    = 16.02205977
ECCENTRICITY   = .0001841
INCLINATION    = 42.9998
RA_OF_ASC_NODE = 312.3389
ARG_OF_PERICENTER = 261.4747
MEAN_ANOMALY   = 23.4987

EPHEMERIS_TYPE = 0
CLASSIFICATION_TYPE = U
NORAD_CAT_ID   = 67306
ELEMENT_SET_NO = 999
REV_AT_EPOCH   = 184
BSTAR          = -.15519E-2
MEAN_MOTION_DOT = -.941705E-2
MEAN_MOTION_DDOT = .30116E-3

CCSDS_OMM_VERS = 2.0
CREATION_DATE  = 
ORIGINATOR     = 

OBJECT_NAME    = STARLINK-36481
OBJECT_ID      = 2026-002C
CENTER_NAME    = EARTH
REF_FRAME      = TEME
TIME_SYSTEM    = UTC
MEAN_ELEMENT_THEORY = SGP/SGP4

EPOCH          = 2026-01-09T04:00:01.998720
MEAN_MOTION    = 16.02415711
ECCENTRICITY   = .0001916
INCLINATION    = 42.9998
RA_OF_ASC_NODE = 312.3340
ARG_OF_PERICENTER = 263.2127
MEAN_ANOMALY   = 23.7536

EPHEMERIS_TYPE = 0
CLASSIFICATION_TYPE = U
NORAD_CAT_ID   = 67307
ELEMENT_SET_NO = 999
REV_AT_EPOCH   = 184
BSTAR          = -.15436E-2
MEAN_MOTION_DOT = -.948309E-2
MEAN_MOTION_DDOT = .30573E-3

CCSDS_OMM_VERS = 2.0
CREATION_DATE  = 
ORIGINATOR     = 

OBJECT_NAME    = STARLINK-36449
OBJECT_ID      = 2026-002D
CENTER_NAME    = EARTH
REF_FRAME      = TEME
TIME_SYSTEM    = UTC
MEAN_ELEMENT_THEORY = SGP/SGP4

EPOCH          = 2026-01-09T04:00:01.998720
MEAN_MOTION    = 16.02512668
ECCENTRICITY   = .0001967
INCLINATION    = 42.9998
RA_OF_ASC_NODE = 312.3317
ARG_OF_PERICENTER = 265.2681
MEAN_ANOMALY   = 22.6206

EPHEMERIS_TYPE = 0
CLASSIFICATION_TYPE = U
NORAD_CAT_ID   = 67308
ELEMENT_SET_NO = 999
REV_AT_EPOCH   = 190
BSTAR          = -.15393E-2
MEAN_MOTION_DOT = -.951097E-2
MEAN_MOTION_DDOT = .3077E-3

CCSDS_OMM_VERS = 2.0
CREATION_DATE  = 
ORIGINATOR     = 

OBJECT_NAME    = STARLINK-36482
OBJECT_ID      = 2026-002E
CENTER_NAME    = EARTH
REF_FRAME      = TEME
TIME_SYSTEM    = UTC
MEAN_ELEMENT_THEORY = SGP/SGP4

EPOCH          = 2026-01-09T04:00:01.998720
MEAN_MOTION    = 16.03024199
ECCENTRICITY   = .0001906
INCLINATION    = 43.0002
RA_OF_ASC_NODE = 312.3202
ARG_OF_PERICENTER = 262.9796
MEAN_ANOMALY   = 29.6967

EPHEMERIS_TYPE = 0
CLASSIFICATION_TYPE = U
NORAD_CAT_ID   = 67309
ELEMENT_SET_NO = 999
REV_AT_EPOCH   = 184
BSTAR          = -.15038E-2
MEAN_MOTION_DOT = -.957808E-2
MEAN_MOTION_DDOT = .31345E-3

CCSDS_OMM_VERS = 2.0
CREATION_DATE  = 
ORIGINATOR     = 

OBJECT_NAME    = STARLINK-36491
OBJECT_ID      = 2026-002F
CENTER_NAME    = EARTH
REF_FRAME      = TEME
TIME_SYSTEM    = UTC
MEAN_ELEMENT_THEORY = SGP/SGP4

EPOCH          = 2026-01-09T04:00:01.998720
MEAN_MOTION    = 16.02347927
ECCENTRICITY   = .0001762
INCLINATION    = 43.0000
RA_OF_ASC_NODE = 312.3362
ARG_OF_PERICENTER = 258.7902
MEAN_ANOMALY   = 27.3383

EPHEMERIS_TYPE = 0
CLASSIFICATION_TYPE = U
NORAD_CAT_ID   = 67310
ELEMENT_SET_NO = 999
REV_AT_EPOCH   = 184
BSTAR          = -.15497E-2
MEAN_MOTION_DOT = -.94818E-2
MEAN_MOTION_DDOT = .30542E-3

CCSDS_OMM_VERS = 2.0
CREATION_DATE  = 
ORIGINATOR     = 

OBJECT_NAME    = STARLINK-36495
OBJECT_ID      = 2026-002G
CENTER_NAME    = EARTH
REF_FRAME      = TEME
TIME_SYSTEM    = UTC
MEAN_ELEMENT_THEORY = SGP/SGP4

EPOCH          = 2026-01-09T04:00:01.998720
MEAN_MOTION    = 16.02628895
ECCENTRICITY   = .0001901
INCLINATION    = 43.0000
RA_OF_ASC_NODE = 312.3291
ARG_OF_PERICENTER = 262.2403
MEAN_ANOMALY   = 26.6814

EPHEMERIS_TYPE = 0
CLASSIFICATION_TYPE = U
NORAD_CAT_ID   = 67311
ELEMENT_SET_NO = 999
REV_AT_EPOCH   = 200
BSTAR          = -.15318E-2
MEAN_MOTION_DOT = -.952987E-2
MEAN_MOTION_DDOT = .30921E-3

